[{"OBJECT_NAME":"ONEWEB-0509","OBJECT_ID":"2022-138Q","EPOCH":"2026-03-03T06:02:25.339488","MEAN_MOTION":13.19723795,"ECCENTRICITY":0.00016663,"INCLINATION":87.925,"RA_OF_ASC_NODE":326.0587,"ARG_OF_PERICENTER":84.1123,"MEAN_ANOMALY":276.02,"EPHEMERIS_TYPE":0,"CLASSIFICATION_TYPE":"U","NORAD_CAT_ID":54127,"ELEMENT_SET_NO":999,"REV_AT_EPOCH":16283,"BSTAR":-8.6148781e-5,"MEAN_MOTION_DOT":-2.2e-7,"MEAN_MOTION_DDOT":0},{"OBJECT_NAME":"ONEWEB-0510","OBJECT_ID":"2022-138R","EPOCH":"2026-03-03T14:27:15.613920","MEAN_MOTION":13.20768282,"ECCENTRICITY":0.00017757,"INCLINATION":87.9181,"RA_OF_ASC_NODE":295.5166,"ARG_OF_PERICENTER":67.8398,"MEAN_ANOMALY":292.2924,"EPHEMERIS_TYPE":0,"CLASSIFICATION_TYPE":"U","NORAD_CAT_ID":54128,"ELEMENT_SET_NO":999,"REV_AT_EPOCH":16534,"BSTAR":0.00028684313,"MEAN_MOTION_DOT":1.3e-6,"MEAN_MOTION_DDOT":0},{"OBJECT_NAME":"ONEWEB-0511","OBJECT_ID":"2022-138S","EPOCH":"2026-03-03T05:57:52.837344","MEAN_MOTION":13.19726354,"ECCENTRICITY":0.00014485,"INCLINATION":87.925,"RA_OF_ASC_NODE":326.0638,"ARG_OF_PERICENTER":74.3619,"MEAN_ANOMALY":285.7673,"EPHEMERIS_TYPE":0,"CLASSIFICATION_TYPE":"U","NORAD_CAT_ID":54129,"ELEMENT_SET_NO":999,"REV_AT_EPOCH":16286,"BSTAR":8.8786955e-5,"MEAN_MOTION_DOT":4.8e-7,"MEAN_MOTION_DDOT":0},{"OBJECT_NAME":"ONEWEB-0512","OBJECT_ID":"2022-138T","EPOCH":"2026-03-03T05:46:29.330400","MEAN_MOTION":13.19728389,"ECCENTRICITY":0.00013985,"INCLINATION":87.9238,"RA_OF_ASC_NODE":326.0799,"ARG_OF_PERICENTER":90.7201,"MEAN_ANOMALY":269.4092,"EPHEMERIS_TYPE":0,"CLASSIFICATION_TYPE":"U","NORAD_CAT_ID":54130,"ELEMENT_SET_NO":999,"REV_AT_EPOCH":16283,"BSTAR":0.0001594285,"MEAN_MOTION_DOT":7.7e-7,"MEAN_MOTION_DDOT":0},{"OBJECT_NAME":"ONEWEB-0513","OBJECT_ID":"2022-138U","EPOCH":"2026-03-03T06:56:57.473376","MEAN_MOTION":13.20262103,"ECCENTRICITY":9.643e-5,"INCLINATION":87.9251,"RA_OF_ASC_NODE":326.0255,"ARG_OF_PERICENTER":106.1119,"MEAN_ANOMALY":254.012,"EPHEMERIS_TYPE":0,"CLASSIFICATION_TYPE":"U","NORAD_CAT_ID":54131,"ELEMENT_SET_NO":999,"REV_AT_EPOCH":16274,"BSTAR":0.00012863568,"MEAN_MOTION_DOT":6.5e-7,"MEAN_MOTION_DDOT":0},{"OBJECT_NAME":"ONEWEB-0514","OBJECT_ID":"2022-138V","EPOCH":"2026-03-03T15:15:07.878240","MEAN_MOTION":13.19726589,"ECCENTRICITY":0.00017134,"INCLINATION":87.924,"RA_OF_ASC_NODE":325.9905,"ARG_OF_PERICENTER":75.4965,"MEAN_ANOMALY":284.6358,"EPHEMERIS_TYPE":0,"CLASSIFICATION_TYPE":"U","NORAD_CAT_ID":54132,"ELEMENT_SET_NO":999,"REV_AT_EPOCH":16290,"BSTAR":1.0062908e-5,"MEAN_MOTION_DOT":1.7e-7,"MEAN_MOTION_DDOT":0},{"OBJECT_NAME":"ONEWEB-0515","OBJECT_ID":"2022-138W","EPOCH":"2026-03-03T14:09:05.614848","MEAN_MOTION":13.20772479,"ECCENTRICITY":0.00024612,"INCLINATION":87.9181,"RA_OF_ASC_NODE":295.5082,"ARG_OF_PERICENTER":75.6918,"MEAN_ANOMALY":284.4489,"EPHEMERIS_TYPE":0,"CLASSIFICATION_TYPE":"U","NORAD_CAT_ID":54133,"ELEMENT_SET_NO":999,"REV_AT_EPOCH":16536,"BSTAR":0.00012938369,"MEAN_MOTION_DOT":6.6e-7,"MEAN_MOTION_DDOT":0},{"OBJECT_NAME":"ONEWEB-0516","OBJECT_ID":"2022-138X","EPOCH":"2026-03-03T05:32:51.993312","MEAN_MOTION":13.19725515,"ECCENTRICITY":0.00017881,"INCLINATION":87.9237,"RA_OF_ASC_NODE":326.0828,"ARG_OF_PERICENTER":82.4786,"MEAN_ANOMALY":277.655,"EPHEMERIS_TYPE":0,"CLASSIFICATION_TYPE":"U","NORAD_CAT_ID":54134,"ELEMENT_SET_NO":999,"REV_AT_EPOCH":16285,"BSTAR":9.7140982e-5,"MEAN_MOTION_DOT":5.2e-7,"MEAN_MOTION_DDOT":0},{"OBJECT_NAME":"ONEWEB-0517","OBJECT_ID":"2022-138Y","EPOCH":"2026-03-03T06:52:28.180128","MEAN_MOTION":13.19726807,"ECCENTRICITY":0.00014763,"INCLINATION":87.9242,"RA_OF_ASC_NODE":326.0598,"ARG_OF_PERICENTER":70.6422,"MEAN_ANOMALY":289.487,"EPHEMERIS_TYPE":0,"CLASSIFICATION_TYPE":"U","NORAD_CAT_ID":54135,"ELEMENT_SET_NO":999,"REV_AT_EPOCH":16286,"BSTAR":0.00028603405,"MEAN_MOTION_DOT":1.27e-6,"MEAN_MOTION_DDOT":0},{"OBJECT_NAME":"ONEWEB-0518","OBJECT_ID":"2022-138Z","EPOCH":"2026-03-03T03:41:23.609472","MEAN_MOTION":13.19724795,"ECCENTRICITY":0.00016706,"INCLINATION":87.9234,"RA_OF_ASC_NODE":326.0998,"ARG_OF_PERICENTER":85.7887,"MEAN_ANOMALY":274.3437,"EPHEMERIS_TYPE":0,"CLASSIFICATION_TYPE":"U","NORAD_CAT_ID":54136,"ELEMENT_SET_NO":999,"REV_AT_EPOCH":16284,"BSTAR":-0.00045201604,"MEAN_MOTION_DOT":-1.68e-6,"MEAN_MOTION_DDOT":0},{"OBJECT_NAME":"ONEWEB-0519","OBJECT_ID":"2022-138AA","EPOCH":"2026-03-03T06:06:59.192064","MEAN_MOTION":13.19725912,"ECCENTRICITY":0.00014908,"INCLINATION":87.9247,"RA_OF_ASC_NODE":326.0587,"ARG_OF_PERICENTER":76.3626,"MEAN_ANOMALY":283.7672,"EPHEMERIS_TYPE":0,"CLASSIFICATION_TYPE":"U","NORAD_CAT_ID":54137,"ELEMENT_SET_NO":999,"REV_AT_EPOCH":16286,"BSTAR":5.5050511e-5,"MEAN_MOTION_DOT":3.5e-7,"MEAN_MOTION_DDOT":0},{"OBJECT_NAME":"ONEWEB-0520","OBJECT_ID":"2022-138AB","EPOCH":"2026-03-03T16:02:54.310560","MEAN_MOTION":13.19725722,"ECCENTRICITY":0.00016602,"INCLINATION":87.9242,"RA_OF_ASC_NODE":325.983,"ARG_OF_PERICENTER":88.7989,"MEAN_ANOMALY":271.3334,"EPHEMERIS_TYPE":0,"CLASSIFICATION_TYPE":"U","NORAD_CAT_ID":54138,"ELEMENT_SET_NO":999,"REV_AT_EPOCH":16290,"BSTAR":0.00010952659,"MEAN_MOTION_DOT":5.7e-7,"MEAN_MOTION_DDOT":0},{"OBJECT_NAME":"ONEWEB-0521","OBJECT_ID":"2022-138AC","EPOCH":"2026-03-03T05:55:36.281280","MEAN_MOTION":13.19725721,"ECCENTRICITY":0.00015865,"INCLINATION":87.9247,"RA_OF_ASC_NODE":326.051,"ARG_OF_PERICENTER":72.1931,"MEAN_ANOMALY":287.9375,"EPHEMERIS_TYPE":0,"CLASSIFICATION_TYPE":"U","NORAD_CAT_ID":54139,"ELEMENT_SET_NO":999,"REV_AT_EPOCH":16279,"BSTAR":8.067195e-5,"MEAN_MOTION_DOT":4.5e-7,"MEAN_MOTION_DDOT":0},{"OBJECT_NAME":"ONEWEB-0522","OBJECT_ID":"2022-138AD","EPOCH":"2026-03-03T05:26:02.109984","MEAN_MOTION":13.19726653,"ECCENTRICITY":0.00015912,"INCLINATION":87.9248,"RA_OF_ASC_NODE":326.0557,"ARG_OF_PERICENTER":84.1327,"MEAN_ANOMALY":275.9987,"EPHEMERIS_TYPE":0,"CLASSIFICATION_TYPE":"U","NORAD_CAT_ID":54140,"ELEMENT_SET_NO":999,"REV_AT_EPOCH":16283,"BSTAR":0.00020480955,"MEAN_MOTION_DOT":9.5e-7,"MEAN_MOTION_DDOT":0},{"OBJECT_NAME":"ONEWEB-0523","OBJECT_ID":"2022-138AE","EPOCH":"2026-03-03T15:40:00.148800","MEAN_MOTION":13.20772853,"ECCENTRICITY":0.00020376,"INCLINATION":87.9182,"RA_OF_ASC_NODE":295.5107,"ARG_OF_PERICENTER":63.4587,"MEAN_ANOMALY":296.6755,"EPHEMERIS_TYPE":0,"CLASSIFICATION_TYPE":"U","NORAD_CAT_ID":54141,"ELEMENT_SET_NO":999,"REV_AT_EPOCH":16537,"BSTAR":0.00020929102,"MEAN_MOTION_DOT":9.8e-7,"MEAN_MOTION_DDOT":0},{"OBJECT_NAME":"ONEWEB-0524","OBJECT_ID":"2022-138AF","EPOCH":"2026-03-03T15:24:05.590368","MEAN_MOTION":13.20780761,"ECCENTRICITY":0.00026327,"INCLINATION":87.9172,"RA_OF_ASC_NODE":295.5127,"ARG_OF_PERICENTER":82.909,"MEAN_ANOMALY":277.2343,"EPHEMERIS_TYPE":0,"CLASSIFICATION_TYPE":"U","NORAD_CAT_ID":54142,"ELEMENT_SET_NO":999,"REV_AT_EPOCH":16537,"BSTAR":0.002212198,"MEAN_MOTION_DOT":9.13e-6,"MEAN_MOTION_DDOT":0},{"OBJECT_NAME":"ONEWEB-0525","OBJECT_ID":"2022-138AG","EPOCH":"2026-03-03T04:04:09.316128","MEAN_MOTION":13.19725979,"ECCENTRICITY":0.00016443,"INCLINATION":87.9241,"RA_OF_ASC_NODE":326.0823,"ARG_OF_PERICENTER":89.3124,"MEAN_ANOMALY":270.8197,"EPHEMERIS_TYPE":0,"CLASSIFICATION_TYPE":"U","NORAD_CAT_ID":54143,"ELEMENT_SET_NO":999,"REV_AT_EPOCH":16284,"BSTAR":0.00018249851,"MEAN_MOTION_DOT":8.6e-7,"MEAN_MOTION_DDOT":0},{"OBJECT_NAME":"ONEWEB-0526","OBJECT_ID":"2022-138AH","EPOCH":"2026-03-03T15:46:57.976608","MEAN_MOTION":13.19723531,"ECCENTRICITY":0.00017748,"INCLINATION":87.9249,"RA_OF_ASC_NODE":325.9794,"ARG_OF_PERICENTER":81.8462,"MEAN_ANOMALY":278.2872,"EPHEMERIS_TYPE":0,"CLASSIFICATION_TYPE":"U","NORAD_CAT_ID":54144,"ELEMENT_SET_NO":999,"REV_AT_EPOCH":16288,"BSTAR":3.0683218e-5,"MEAN_MOTION_DOT":2.5e-7,"MEAN_MOTION_DDOT":0},{"OBJECT_NAME":"ONEWEB-0529","OBJECT_ID":"2022-138AJ","EPOCH":"2026-03-03T06:45:38.949120","MEAN_MOTION":13.19725838,"ECCENTRICITY":0.00016984,"INCLINATION":87.9239,"RA_OF_ASC_NODE":326.0726,"ARG_OF_PERICENTER":86.7543,"MEAN_ANOMALY":273.3784,"EPHEMERIS_TYPE":0,"CLASSIFICATION_TYPE":"U","NORAD_CAT_ID":54145,"ELEMENT_SET_NO":999,"REV_AT_EPOCH":16285,"BSTAR":0.00011637838,"MEAN_MOTION_DOT":6.0e-7,"MEAN_MOTION_DDOT":0},{"OBJECT_NAME":"ONEWEB-0531","OBJECT_ID":"2022-138AK","EPOCH":"2026-03-03T15:03:38.157408","MEAN_MOTION":13.20772756,"ECCENTRICITY":0.00023461,"INCLINATION":87.9184,"RA_OF_ASC_NODE":295.5116,"ARG_OF_PERICENTER":68.4559,"MEAN_ANOMALY":291.6824,"EPHEMERIS_TYPE":0,"CLASSIFICATION_TYPE":"U","NORAD_CAT_ID":54146,"ELEMENT_SET_NO":999,"REV_AT_EPOCH":16537,"BSTAR":5.5590435e-5,"MEAN_MOTION_DOT":3.6e-7,"MEAN_MOTION_DDOT":0},{"OBJECT_NAME":"ONEWEB-0535","OBJECT_ID":"2022-138AL","EPOCH":"2026-03-03T05:44:14.216352","MEAN_MOTION":13.19726267,"ECCENTRICITY":0.00017805,"INCLINATION":87.9248,"RA_OF_ASC_NODE":326.0572,"ARG_OF_PERICENTER":67.9574,"MEAN_ANOMALY":292.1748,"EPHEMERIS_TYPE":0,"CLASSIFICATION_TYPE":"U","NORAD_CAT_ID":54147,"ELEMENT_SET_NO":999,"REV_AT_EPOCH":16286,"BSTAR":0.00022836778,"MEAN_MOTION_DOT":1.04e-6,"MEAN_MOTION_DDOT":0},{"OBJECT_NAME":"ONEWEB-0536","OBJECT_ID":"2022-138AM","EPOCH":"2026-03-03T14:45:27.439488","MEAN_MOTION":13.20772215,"ECCENTRICITY":0.00024919,"INCLINATION":87.9171,"RA_OF_ASC_NODE":295.5499,"ARG_OF_PERICENTER":69.3742,"MEAN_ANOMALY":290.7659,"EPHEMERIS_TYPE":0,"CLASSIFICATION_TYPE":"U","NORAD_CAT_ID":54148,"ELEMENT_SET_NO":999,"REV_AT_EPOCH":16536,"BSTAR":-3.6704691e-5,"MEAN_MOTION_DOT":-2.0e-8,"MEAN_MOTION_DDOT":0},{"OBJECT_NAME":"ONEWEB-0527","OBJECT_ID":"2022-166A","EPOCH":"2026-03-03T13:46:55.528320","MEAN_MOTION":13.21825267,"ECCENTRICITY":0.00016782,"INCLINATION":87.9164,"RA_OF_ASC_NODE":265.0601,"ARG_OF_PERICENTER":91.1077,"MEAN_ANOMALY":269.025,"EPHEMERIS_TYPE":0,"CLASSIFICATION_TYPE":"U","NORAD_CAT_ID":54642,"ELEMENT_SET_NO":999,"REV_AT_EPOCH":15758,"BSTAR":0.00016253958,"MEAN_MOTION_DOT":8.0e-7,"MEAN_MOTION_DDOT":0}]
